CCSDS_OMM_VERS,COMMENT,CREATION_DATE,ORIGINATOR,OBJECT_NAME,OBJECT_ID,CENTER_NAME,REF_FRAME,TIME_SYSTEM,MEAN_ELEMENT_THEORY,EPOCH,MEAN_MOTION,ECCENTRICITY,INCLINATION,RA_OF_ASC_NODE,ARG_OF_PERICENTER,MEAN_ANOMALY,EPHEMERIS_TYPE,CLASSIFICATION_TYPE,NORAD_CAT_ID,ELEMENT_SET_NO,REV_AT_EPOCH,BSTAR,MEAN_MOTION_DOT,MEAN_MOTION_DDOT,SEMIMAJOR_AXIS,PERIOD,APOAPSIS,PERIAPSIS,OBJECT_TYPE,RCS_SIZE,COUNTRY_CODE,LAUNCH_DATE,SITE,DECAY_DATE,FILE,GP_ID,TLE_LINE0,TLE_LINE1,TLE_LINE2,NORAD_KEY,JCAT,DeepCat,Satcat,Piece,Active,Type,Name,LDate,Parent,Owner,State,SDate,ExpandedStatus,DDate,ODate,Period,Perigee,PF,Apogee,AF,Inc,IF,OpOrbit,SATCAT_KEY,DENSITY_SCORE
3.0,GENERATED VIA SPACE-TRACK.ORG API,2026-05-06T02:32:52,18 SPCS,FENGYUN 2C,2004-042A,EARTH,TEME,UTC,SGP4,2026-05-05T19:24:47.511936,0.98081518,0.00039903,12.3689,31.5024,351.5718,203.3714,0,U,28451,999,4075,0.0,-7e-08,0.0,42790.142,1468.167,36429.081,36394.932,PAYLOAD,LARGE,PRC,2004-10-19,XSC,,5176277,322217757,0 FENGYUN 2C,1 28451U 04042A   26125.80888324 -.00000007  00000-0  00000-0 0  9995,2 28451  12.3689  31.5024 0003990 351.5718 203.3714  0.98081518 40753,28451,S28451,-,28451,2004-042A,P,P,Feng Yun 2C,2004 Oct 19,S28452,NSMC,CN,2004 Oct 19 0144,In Earth orbit,-,2026 May  4 ,1468.166,36394, ,36429, ,12.37, ,GEO/ID,28451,1.634054757603258
3.0,GENERATED VIA SPACE-TRACK.ORG API,2026-05-06T14:56:52,18 SPCS,AMC-6 (GE-6),2000-067A,EARTH,TEME,UTC,SGP4,2026-05-06T12:55:21.861408,1.00271668,0.0003694,0.0813,73.5584,333.8351,235.7891,0,U,26580,999,9347,0.0,9.6e-07,0.0,42164.765,1436.099,35802.205,35771.054,PAYLOAD,LARGE,SES,2000-10-21,TTMTR,,5177594,322307352,0 AMC-6 (GE-6),1 26580U 00067A   26126.53844747  .00000096  00000-0  00000+0 0  9997,2 26580   0.0813  73.5584 0003694 333.8351 235.7891  1.00271668 93474,26580,S26580,-,26580,2000-067A,P,P,AMC 6,2000 Oct 21,S26583,SESSAP,US,2000 Oct 22 0441,In Earth orbit,-,2026 May  5 ,1436.104,35771, ,35802, ,0.08, ,GEO/S,26580,1.6350054664933653
3.0,GENERATED VIA SPACE-TRACK.ORG API,2026-05-06T10:08:52,18 SPCS,EXPRESS 4A,2002-029A,EARTH,TEME,UTC,SGP4,2026-05-05T21:54:13.175136,0.99204768,0.00030835,11.5981,36.7961,88.4682,102.1234,0,U,27441,999,8734,0.0,3.3e-07,0.0,42466.533,1451.543,36101.493,36075.304,PAYLOAD,LARGE,CIS,2002-06-10,TTMTR,,5176958,322266232,0 EXPRESS 4A,1 27441U 02029A   26125.91265249  .00000033  00000-0  00000-0 0  9991,2 27441  11.5981  36.7961 0003083  88.4682 102.1234  0.99204768 87347,27441,S27441,-,27441,2002-029A,P,P,Ekspress A1R,2002 Jun 10,S27444,KS,RU,2002 Jun 10 0758,In Earth orbit,-,2026 May  4 ,1451.55,36075, ,36101, ,11.6, ,GEO/ID,27441,1.6367838440165943
3.0,GENERATED VIA SPACE-TRACK.ORG API,2026-05-06T10:08:52,18 SPCS,NSAT 110,2000-060A,EARTH,TEME,UTC,SGP4,2026-05-06T02:06:38.767680,0.99178699,0.0006503,6.6896,70.6847,3.7063,233.0537,0,U,26559,999,9340,0.0,9.9e-07,0.0,42473.975,1451.925,36123.461,36068.219,PAYLOAD,LARGE,JPN,2000-10-06,FRGUI,,5176958,322265587,0 NSAT 110,1 26559U 00060A   26126.08794870  .00000099  00000-0  00000-0 0  9991,2 26559   6.6896  70.6847 0006503   3.7063 233.0537  0.99178699 93406,26559,S26559,-,26559,2000-060A,P,P,N-SAT-110,2000 Oct  6,S26560,SKPJ,J,2000 Oct  6 2320,In Earth orbit,-,2026 May  4 ,1451.93,36068, ,36123, ,6.69, ,GEO/ID,26559,1.6374860510503908
3.0,GENERATED VIA SPACE-TRACK.ORG API,2026-05-06T07:56:53,18 SPCS,GALAXY 1R,1994-013A,EARTH,TEME,UTC,SGP4,2026-05-05T21:42:59.719104,0.99220762,0.0002891,12.8729,22.7572,319.9151,308.2398,0,U,23016,999,4576,0.0,-1.25e-06,0.0,42461.97,1451.309,36096.11,36071.559,PAYLOAD,LARGE,US,1994-02-19,AFETR,,5176689,322253006,0 GALAXY 1R,1 23016U 94013A   26125.90485786 -.00000125  00000-0  00000+0 0  9990,2 23016  12.8729  22.7572 0002891 319.9151 308.2398  0.99220762 45769,23016,S23016,-,23016,1994-013A,P,P,Galaxy 1R,1994 Feb 19,S23018,SESINTU,US,1994 Feb 20 0106,In Earth orbit,-,2026 May  5 ,1451.304,36071, ,36096, ,12.87, ,GEO/ID,23016,1.6437702806819692
3.0,GENERATED VIA SPACE-TRACK.ORG API,2026-05-06T14:46:56,18 SPCS,WESTAR 3,1979-072A,EARTH,TEME,UTC,SGP4,2026-05-06T12:42:05.109120,0.99937868,0.0002847,10.3247,321.4241,352.9603,347.2006,0,U,11484,999,14009,0.0,-5e-08,0.0,42258.602,1440.895,35892.498,35868.436,PAYLOAD,LARGE,US,1979-08-10,AFETR,,5177213,322299029,0 WESTAR 3,1 11484U 79072A   26126.52922580 -.00000005  00000-0  00000+0 0  9998,2 11484  10.3247 321.4241 0002847 352.9603 347.2006  0.99937868140098,11484,S11484,-,11484,1979-072A,P,P,Westar 3,1979 Aug 10,S13940,WUTC,US,1979 Aug 10 0045,In Earth orbit,-,2026 May  5 ,1440.897,35868, ,35892, ,10.33, ,GEO/ID,11484,1.6452643734585481
3.0,GENERATED VIA SPACE-TRACK.ORG API,2026-05-06T14:46:56,18 SPCS,WESTAR 4,1982-014A,EARTH,TEME,UTC,SGP4,2026-05-06T08:56:23.466912,0.99769575,0.0004021,12.6809,335.2605,317.4719,284.2631,0,U,13069,999,4602,0.0,1.01e-06,0.0,42306.11,1443.326,35944.986,35910.964,PAYLOAD,LARGE,US,1982-02-26,AFETR,,5177242,322299889,0 WESTAR 4,1 13069U 82014A   26126.37249383  .00000101  00000-0  00000+0 0  9991,2 13069  12.6809 335.2605 0004021 317.4719 284.2631  0.99769575 46025,13069,S13069,-,13069,1982-014A,P,P,Westar 4,1982 Feb 26,S13136,WUTC,US,1982 Feb 26 0028,In Earth orbit,-,2026 May  5 ,1443.332,35910, ,35945, ,12.68, ,GEO/ID,13069,1.6460756411429807
3.0,GENERATED VIA SPACE-TRACK.ORG API,2026-05-06T14:56:52,18 SPCS,UFO 8 (USA 138),1998-016A,EARTH,TEME,UTC,SGP4,2026-05-06T13:36:05.560128,1.00276969,0.0005012,11.0818,23.0135,277.0838,281.5646,0,U,25258,999,10344,0.0,-1.8e-06,0.0,42163.279,1436.023,35806.276,35764.012,PAYLOAD,LARGE,US,1998-03-16,AFETR,,5177555,322307366,0 UFO 8 (USA 138),1 25258U 98016A   26126.56673102 -.00000180  00000-0  00000+0 0  9992,2 25258  11.0818  23.0135 0005012 277.0838 281.5646  1.00276969103444,25258,S25258,-,25258,1998-016A,P,P       c,UHF F/O F8,1998 Mar 16,S25259,PMW146,US,1998 Mar 16 2202,In Earth orbit,-,2026 May  4 ,1436.018,35763, ,35806, ,11.08, ,GEO/I,25258,1.6481745454669996
3.0,GENERATED VIA SPACE-TRACK.ORG API,2026-05-06T14:56:52,18 SPCS,TELECOM 2B,1992-021A,EARTH,TEME,UTC,SGP4,2026-05-06T13:39:53.070336,0.99514427,0.0015196,14.5338,4.04,77.5528,132.6658,0,U,21939,999,11697,0.0,-3.25e-06,0.0,42378.392,1447.026,36064.655,35935.859,PAYLOAD,LARGE,FR,1992-04-15,FRGUI,,5177462,322304143,0 TELECOM 2B,1 21939U 92021A   26126.56936424 -.00000325  00000-0  00000+0 0  9994,2 21939  14.5338   4.0400 0015196  77.5528 132.6658  0.99514427116970,21939,S21939,-,21939,1992-021A,P,P,Telecom 2B,1992 Apr 15,S21941,ORANGE,F,1992 Apr 15 2345,In Earth orbit,-,2026 May  4 ,1447.021,35936, ,36064, ,14.53, ,GEO/ID,21939,1.6500718988266936
3.0,GENERATED VIA SPACE-TRACK.ORG API,2026-05-06T14:56:52,18 SPCS,ECHOSTAR 4,1998-028A,EARTH,TEME,UTC,SGP4,2026-05-06T11:44:16.118016,0.98949957,0.001517,11.67,31.5051,305.3261,178.2074,0,U,25331,999,10192,0.0,-1.69e-06,0.0,42539.407,1455.281,36225.805,36096.74,PAYLOAD,LARGE,US,1998-05-07,TTMTR,,5177557,322307395,0 ECHOSTAR 4,1 25331U 98028A   26126.48907544 -.00000169  00000-0  00000+0 0  9995,2 25331  11.6700  31.5051 0015170 305.3261 178.2074  0.98949957101922,25331,S25331,-,25331,1998-028A,P,P,Echostar IV,1998 May  7,S25334,ECHOC,US,1998 May  8 0625,In Earth orbit,-,2026 May  4 ,1455.267,36096, ,36225, ,11.67, ,GEO/ID,25331,1.6501786295655478
3.0,GENERATED VIA SPACE-TRACK.ORG API,2026-05-06T14:56:52,18 SPCS,HIMAWARI 5 (GMS 5),1995-011B,EARTH,TEME,UTC,SGP4,2026-05-06T12:14:18.541248,0.99409772,0.0005355,14.2823,4.7429,153.3736,56.3729,0,U,23522,999,11318,0.0,-2.23e-06,0.0,42408.13,1448.55,36052.705,36007.285,PAYLOAD,LARGE,JPN,1995-03-18,TNSTA,,5177509,322305230,0 HIMAWARI 5 (GMS 5),1 23522U 95011B   26126.50993682 -.00000223  00000-0  00000+0 0  9996,2 23522  14.2823   4.7429 0005355 153.3736  56.3729  0.99409772113181,23522,S23522,-,23522,1995-011B,P,P,Himawari-5,1995 Mar 18,S23523,JAXA,J,1995 Mar 18 0828,In Earth orbit,-,2026 May  4 ,1448.554,36007, ,36052, ,14.28, ,GEO/ID,23522,1.6535535621412178
3.0,GENERATED VIA SPACE-TRACK.ORG API,2026-05-06T15:06:46,18 SPCS,INTELSAT 1R (PAS 1R),2000-072A,EARTH,TEME,UTC,SGP4,2026-05-06T06:07:38.607744,0.98971023,0.0008839,7.9744,65.2214,293.8358,317.5057,0,U,26608,999,4081,0.0,-1.64e-06,0.0,42533.371,1454.971,36192.831,36117.641,PAYLOAD,LARGE,US,2000-11-16,FRGUI,,5177721,322311262,0 INTELSAT 1R (PAS 1R),1 26608U 00072A   26126.25530796 -.00000164  00000-0  00000+0 0  9996,2 26608   7.9744  65.2214 0008839 293.8358 317.5057  0.98971023 40811,26608,S26608,-,26608,2000-072A,P,P,Intelsat IS-1R,2000 Nov 16,S26613,SESINTU,US,2000 Nov 16 0136,In Earth orbit,-,2026 May  5 ,1454.975,36117, ,36193, ,7.97, ,GEO/ID,26608,1.6543233964062822
3.0,GENERATED VIA SPACE-TRACK.ORG API,2026-05-06T14:56:52,18 SPCS,INMARSAT 3-F5,1998-006B,EARTH,TEME,UTC,SGP4,2026-05-06T05:53:17.866752,1.00268863,0.0005169,9.601,53.6685,355.1426,209.5829,0,U,25153,999,10347,0.0,-2.83e-06,0.0,42165.551,1436.139,35809.211,35765.621,PAYLOAD,LARGE,IM,1998-02-04,FRGUI,,5177551,322306816,0 INMARSAT 3-F5,1 25153U 98006B   26126.24534568 -.00000283  00000-0  00000+0 0  9996,2 25153   9.6010  53.6685 0005169 355.1426 209.5829  1.00268863103478,25153,S25153,-,25153,1998-006B,P,P,INMARSAT III F-5,1998 Feb  4,S25154,INMRV,UK,1998 Feb  4 2355,In Earth orbit,-,2026 May  5 ,1436.132,35765, ,35809, ,9.6, ,GEO/I,25153,1.656970584557037
3.0,GENERATED VIA SPACE-TRACK.ORG API,2026-05-06T14:56:52,18 SPCS,ELEKTRO (GOMS),1994-069A,EARTH,TEME,UTC,SGP4,2026-05-06T11:21:28.660032,1.00288102,0.0008133,14.4926,349.6186,270.7882,211.8616,0,U,23327,999,11545,0.0,-1.33e-06,0.0,42160.158,1435.863,35816.312,35747.734,PAYLOAD,LARGE,CIS,1994-10-31,TTMTR,,5177503,322305658,0 ELEKTRO (GOMS),1 23327U 94069A   26126.47324838 -.00000133  00000-0  00000+0 0  9998,2 23327  14.4926 349.6186 0008133 270.7882 211.8616  1.00288102115454,23327,S23327,-,23327,1994-069A,P,P,Elektro,1994 Oct 31,S23330,RGMS/VNIIEMI,RU,1994 Oct 31 2110?,In Earth orbit,-,2026 May  5 ,1435.862,35747, ,35816, ,14.49, ,GEO/I,23327,1.6574102269729545
